placename,streetaddress,City,inspectdate,latitude,longitude
The Park at Murano Pool Ph I,4757 Barkley Circle,Fort Myers,11/27/18,26.59243249,-81.88116419
The Park at Murano Pool,1581 Matthew Drive,Fort Myers,11/27/18,26.58989442,-81.88111343
Clubhouse Condo of Cape Coral Pool,3817 Country Club Boulevard,Cape Coral,7/30/18,26.5810055,-81.9540572
Cypress Woods RV Resort Spa,5551 Luckett Road,Fort Myers,11/27/18,26.65647526,-81.79292022
Cypress Woods RV Resort Pool,5551 Luckett Road,Fort Myers,11/27/18,26.65647526,-81.79292022
Holiday Condo Outdoor Pool,16410 San Carlos Boulevard,Fort Myers,5/30/18,26.5017365,-81.9456356
Residence Inn Fort Myers- Sanibel Pool,20371 Summerlin Road,Fort Myers,5/31/18,26.4922543,-81.974807
Residence Inn Fort Myers- Sanibel Pool,20371 Summerlin Road,Fort Myers,5/30/18,26.4922543,-81.974807
Millennium Apartments,9505  Blackwood Circle,Fort Myers,5/30/18,26.47224291,-81.81220135
Fairway Woods at the Forest Spa II,16220 Fairway Woods Drive,Fort Myers,5/31/18,26.5055169,-81.8669986
Residence Inn Fort Myers- Sanibel  Spa,20371 Summerlin Road,Fort Myers,5/30/18,26.4922543,-81.974807
Bayview II At Bonita Bay Pool,4801 Island Pond Court,Bonita Springs,5/31/18,26.3495202,-81.8331061
Cracker Cove of Bonita Bay Spa,3769 Cracker Way,Bonita Springs,5/31/18,26.3451838,-81.8185098
Bayview II at Bonita Bay Spa,4801 Island Pond Court,Bonita Springs,5/31/18,26.3495202,-81.8331061
The Springs Resort Pool(Days Inn),18051 S Tamiami Trail,Fort Myers,6/6/18,26.4760761,-81.8363949
Arlington Park Pool,10123 Sandy Hollow  Lane,Bonita Springs,5/30/18,26.3588887,-81.7863455
Bonita Lakes Swimming Pool,23235 Salinas  Way,Bonita Springs,5/30/18,26.35549472,-81.75195016
Coves of Estero Bay Swimming Pool,6409 Estero Bay Drive,Fort Myers,6/7/18,26.49270755,-81.92552833
Bonita Lakes Interactive Water Feature,23235 Salinas Way,Bonita Springs,5/30/18,26.35549472,-81.75195016
Harborage Pool,5000 Harborage Drive,Ft Myers,6/6/18,26.4818451,-81.8471717
Bonita Lakes Spa,23235 Salinas Way,Bonita Springs,5/30/18,26.35549472,-81.75195016
Bent Palms Townhomes Pool,16535 Bent Palms Cove,Fort Myers,6/7/18,26.49270755,-81.92552833
Bay Harbor Club Spa 1 (North),26225 Hickory Boulevard,Bonita Springs,6/12/18,26.3574267,-81.8560372
San Mirage Condo Spa,8890 Colonnades Court W,Bonita Springs,6/8/18,26.3699589,-81.8044964
San Mirage Condo Spa,8890 Colonnades Court W,Bonita Springs,6/12/18,26.3699589,-81.8044964
Mango Creek Condo Pool,27684 Imperial River Road,Bonita Springs,6/18/18,26.3316912,-81.8205131
Wyndham Garden Fort Myers Beach Pool,6890 Estero Boulevard,Fort Myers Beach,6/18/18,26.4164661,-81.902041
Mandolin Bay Villas Condo Pool,15990 Mandolin Bay Drive,Fort Myers,6/20/18,26.5101833,-81.9522632
Caloosa Lakes The Grove Clubhouse Pool,10701 Marble Brook Boulevard,Lehigh Acres,6/26/18,26.5906364,-81.6356282
The Reef Phase II Pool,19655  Three Oaks Parkway,Fort Myers,6/28/18,26.47224291,-81.81220135
Porta Vecchio Spa @ Mediterra,17065 Porta Vecchio Way,Bonita Springs,6/27/18,26.31787404,-81.78385549
San Simeon Spa,3801 Cherrybrook Loop,Fort Myers,7/10/18,26.6062809,-81.8178078
San Simeon Pool,3801 Cherrybrook Loop,Fort Myers,7/10/18,26.6062809,-81.8178078
Islands At Three Oaks Spa,18225 Horseshoe Bay Circle,Fort Myers,7/10/18,26.4762012,-81.7958775
Hidden Harbor Lodge Pool,17320 Hidden Estates Circle,Fort Myers,7/10/18,26.4882784,-81.8538269
The Park At Lakewood Pool,14851 Park Lake Drive,Fort Myers,7/11/18,26.5267177,-81.8908262
Botanica Lakes Clubhouse Spa,10300 Botanica Lakes Boulevard,Fort Myers,7/16/18,26.580492,-81.7870756
Botanica Lakes Clubhouse Pool,10300 Botanica Lakes Boulevard,Fort Myers,7/16/18,26.580492,-81.7870756
Gladiolus Preserve Pool,9659 Gladiolus Preserve Circle,Fort Myers,7/19/18,26.5184102,-81.9154372
Argyle Homeowners Association Pool,1560 Argyle Drive,Fort Myers,7/12/18,26.5863008,-81.8881921
Reserve At Estero Spa,9350 La Bianco Street,Fort Myers,7/17/18,26.45402394,-81.80119119
Villas of Fountain Lakes Spa,22161 Sundancer Court,Estero,7/17/18,26.4147069,-81.8164971
Pine Glen At Three Oaks Pool,19351 Devonwood Circle,Fort Myers,7/16/18,26.4587707,-81.7921876
Westwood Apartments Pool,3739 Metro Parkway,Fort Myers,7/19/18,26.60777393,-81.85072122
Westchase Apartments Wading Pool,3810 Metro Parkway,Fort Myers,7/19/18,26.60770968,-81.85273629
Westchase Apartments Pool,3810 Metro Parkway,Fort Myers,7/19/18,26.60770968,-81.85273629
Westwood Apartments Wading Pool,3739 Metro Parkway,Fort Myers,7/19/18,26.60777393,-81.85072122
Scubavice Diving Center,12600 McGregor Boulevard,Fort Myers,7/16/18,26.5600612,-81.9095332
Mystic Gardens Condo Pool,5301 Summerlin Road,Fort Myers,7/12/18,26.55667435,-81.903357
Belle Lago Wading Pool,19701 La Serena Drive,Fort Myers,7/24/18,26.47224291,-81.81220135
Osprey Cove Pool,8510 King Bird Loop,Fort Myers,7/24/18,26.4508809,-81.8127611
Terraverde Country Club Spa,17000 Terraverde Circle,Fort Myers,7/25/18,26.49117031,-81.85820326
Avalon Preserve Spa,11900 Avalon Preserve Boulevard,Fort Myers,7/25/18,26.5081116,-81.8994969
Leonardo Arms Beach Club Condo Pool,7400 Estero Boulevard,Fort Myers Beach,7/17/18,26.4103989,-81.9008056
Park Place Apartments North Pool,4620 DeLeon Street,Fort Myers,7/24/18,26.59301907,-81.8769873
Park Place Apartments South Pool,4644 Deleon Street,Fort Myers,7/24/18,26.59418212,-81.87688428
Chadwyck Square Pool,25121 Divot Drive,Bonita Springs,4/24/19,26.37240923,-81.77903226
Amherst Manor Apartments Pool,4824 Atlantic Court,Cape Coral,4/25/19,26.5617507,-81.9591904
Sutton Walk Cabana Pool At Lexington Country Club,9099 Southmont Cove,Fort Myers,9/18/18,26.4830402,-81.9031848
Fort Myers Beach Lap Pool,2600 Oak Street,Fort Myers Beach,9/20/18,26.4486904,-81.9407566
Fort Myers Beach Family Pool,2600 Oak Street,Fort Myers Beach,9/20/18,26.4486904,-81.9407566
Kahlua Beach Club Pool,4950 Estero Boulevard,Fort Myers Beach,4/25/19,26.4346927,-81.9193948
Kahlua Beach Club Spa,4950 Estero Boulevard,Fort Myers Beach,4/25/19,26.4346927,-81.9193948
Captiva Island Inn,11509 Andy Rosse Lane,Captiva,4/22/19,26.5217003,-82.1904248
Fountain View Spa,18961 N Tamiami Trail,North Fort Myers,12/18/18,26.74195432,-81.91606387
The Lakes At Three Oaks Spa,9160 Pittsburgh Boulevard,Fort Myers,8/9/18,26.4786101,-81.80131
Cypress Bend RV Resort Spa,8631 Red Cedar Drive,Estero,10/3/18,26.4476953,-81.8102298
Shamron Beach Condo Pool,7650 Estero Boulevard,Fort Myers Beach,10/4/18,26.4076041,-81.8974288
Estero Bayside Spa,22628 Island Pines Way,Fort Myers Beach,10/4/18,26.417649,-81.8972692
Beach Club Colony Condo Pool,642-702 Joel Boulevard,Lehigh Acres,10/8/18,26.62316372,-81.59780465
Baycrest At Pelican Landing Pool,25201 Galashields Circle,Bonita Springs,10/9/18,26.37085,-81.8102151
Seville Apartments Pool,7331 Pinnacle Pines Drive,Fort Myers,7/26/18,26.56557446,-81.878578
Terraverde Country Club Spa,17000 Terraverde Circle,Fort Myers,7/26/18,26.49117031,-81.85820326
Palm Vista Apartments Pool,3726 Central Avenue,Fort Myers,7/27/18,26.607641,-81.86490261
Avalon Preserve Spa,11900 Avalon Preserve Boulevard,Fort Myers,7/26/18,26.5081116,-81.8994969
Shady Acres Travel Park-SPA,19370 S Tamiami Trail,Fort Myers,7/25/18,26.4567636,-81.8314449
Bobbie Noonan's Child Care,1217 Cape Coral Parkway W,Cape Coral,7/19/18,26.56304,-81.9997567
North Captiva Island Club Pool,4421 Bartlett Parkway,Captiva,8/15/18,26.5982708,-82.2185992
North Captiva Island Club Pool 2,4421 Bartlett Parkway,Captiva,8/15/18,26.5982708,-82.2185992
Cypress Cove Commons Spa,12620 Wildcat Cove Circle,Estero,8/15/18,26.4424909,-81.7450623
Chabad Lubavitch Pool,5620 Winkler Road,Fort Myers,8/14/18,26.56951492,-81.89999808
Corkscrew Shores Pool,14700  Corkscrewshores  Parkway,Estero,12/11/18,26.41970239,-81.72340607
Corkscrew Shores Spa,14700  Corkscrew Shores Parkway,Estero,12/11/18,26.41970239,-81.72340607
Champions Green Condo Pool,11990 Champions Green Way,Fort Myers,7/26/18,26.57728201,-81.75819592
Tropical Sands Resort Spa,7785 Estero Boulevard,Fort Myers Beach,7/27/18,26.4079362,-81.8961075
Garden Lakes Spa,10120 Colonial Country Club,Fort Myers,12/17/18,26.5859774,-81.7876777
Brown Academy Pool,12211 Towne Lake Drive,Fort Myers,12/17/18,26.5666779,-81.7500621
Bella Lago @ Bay Beach Spa,7451 Bella Lago Drive,Fort Myers Beach,8/14/18,26.4106508,-81.8985689
Bella Lago at Bay Beach Pool,7451 Bella Lago Drive,Fort Myers Beach,8/14/18,26.4106508,-81.8985689
Porta Vecchio Pool @ Mediterra,17065 Porta Vecchio Way,Bonita Springs,6/27/18,26.31787404,-81.78385549
Island Park Woods Pool,6127 Lake Front Drive,Fort Myers,8/9/18,26.4887126,-81.8578705
Lake Arrowhead M/V Spa,3122 Old Farmhouse  Road,North Fort Myers,12/17/18,26.7091155,-81.8953658
Windsor Garden Apartments Pool,3855 Broadway,Fort Myers,12/27/18,26.6057845,-81.8680237
The Brittany Pool,4050 Winkler Avenue Extension,Fort Myers,12/27/18,26.63435712,-81.83915152
Kelly Greens Clubhouse Spa,12290 Kelly Sands Way,Fort Myers,7/30/18,26.50108578,-81.95760076
Villa Palmeras Spa,21501 Cascina  Drive,Estero,7/31/18,26.4264234,-81.7876463
Copper Oaks Estates Pool,10206 South Golden Elm Drive,Estero,8/1/18,26.438646,-81.7876079
Windward Way Condo Spa,15770 Windward Way Circle,Fort Myers,8/2/18,26.5118506,-81.9540875
Royal Beach Club Spa,800 Estero Boulevard,Fort Myers Beach,8/9/18,26.4543246,-81.9582955
The Lakes At Three Oaks Spa,9160 Pittsburgh Boulevard,Fort Myers,8/2/18,26.4786101,-81.80131
Mangrove Bay Pool,950 Moody Road,North Fort Myers,11/26/18,26.6587977,-81.8982993
Cypress Trail RV Resort - Main Clubhouse- Pool,5468 Tice Street,Fort Myers,1/10/19,26.66712981,-81.78670755
Breckenridge Phase III Pool,4201 Dillon Lane,Estero,12/3/18,26.41970239,-81.72340607
Bayshore Commons Pool,15111 Caspian Tern Court,North Fort Myers,9/5/18,26.694378,-81.851356
Shipwreck Motel Pool 2 (Bayside),309 Old San Carlos Boulevard,Fort Myers Beach,9/6/18,26.45482137,-81.9555148
Mariner's Boathouse Spa,7630 Estero Boulevard,Fort Myers Beach,8/29/18,26.4080775,-81.8977075
The Neptune Pool,2310 Estero Boulevard,Fort Myers Beach,4/30/19,26.4489793,-81.945357
Casa Bella Condo Pool,16381 Dublin Circle,Fort Myers,5/7/19,26.5085202,-81.948577
Golf View Motel Pool,3523 Cleveland,Fort Myers,11/27/18,26.6132623,-81.8713666
Dolphin Run Apartments Pool,2310 Maple Avenue,Fort Myers,11/14/18,26.62374997,-81.86592004
Greenbriar Village Pool,5860 Trailwinds Drive,Fort Myers,2/27/19,26.5709226,-81.857639
Caribbean Beach Club Pool,7600 Estero Boulevard,Fort Myers Beach,4/12/19,26.4085528,-81.8980798
Pine Key Spa,1095 Hancock Creek Boulevard S,Cape Coral,7/25/18,26.6938848,-81.9452399
Pine Key Pool,1095 Hancock Creek Boulevard S,Cape Coral,7/25/18,26.6938848,-81.9452399
Greenbriar Village Pool,5860 Trailwinds Drive,Fort Myers,10/1/18,26.5709226,-81.857639
Village Creek Condo Spa,2825 Winkler Avenue,Fort Myers,12/12/18,26.6054615,-81.8535138
Cobblestone On The Lake Pool,4400 Cortina Circle,Fort Myers,12/10/18,26.63435712,-81.83915152
St. Tropez Spa,2743 First Street,Fort Myers,12/10/18,26.6518419,-81.8585944
Hamlet Homeowners Assoc Pool,1440 Park Shore Circle,Fort Myers,11/6/18,26.6012367,-81.8872435
Bermuda Ridge Spa,28741 Diamond Drive,Bonita Springs,3/27/19,26.3179165,-81.810517
Villages At Country Creek Spa,21180 Country Creek Drive,Estero,12/4/18,26.4336632,-81.7946478
Bermuda Isles & Cays Swim & Racquet Club Spa,3876 Essex Place,Bonita Springs,12/4/18,26.3228772,-81.8164577
Prosperity Point West Spa,3380 Sunset Key Circle,Punta Gorda,11/30/18,26.76376084,-82.0586388
San Marino At Miromar Lakes Spa,19616 Marinus Street,Fort Myers,12/5/18,26.5161523,-81.6965091
Ravenna Spa,11050 Via Tuscany Lane,Fort Myers,12/4/18,26.5161523,-81.6965091
Riverwalk Apartments Pool,2515 First Street,Fort Myers,11/20/18,26.6475067,-81.8654304
Golf Meadow Apartments Pool,1852 Golf View Avenue,Fort Myers,11/27/18,26.6101436,-81.8745963
Pebble Court Apartments Pool,2974 Jackson Street,Fort Myers,11/27/18,26.6230231,-81.866408
Stella Del Mar Pool,15072 Stella Del Mar Lane,Fort Myers,12/5/18,26.5221605,-81.952183
Brechin Apartments Pool,1915 Maravilla Avenue,Fort Myers,11/28/18,26.615631,-81.8737295
Ravenna Pool,11050 Via Tuscany Lane,Fort Myers,12/4/18,26.5161523,-81.6965091
Brookdale- Fort Myers- Cypress Lake Pool,7460 Lake Breeze Drive,Fort Myers,2/25/19,26.5468426,-81.8823841
Laurel Oaks Pool,5640 Grey Fox Run,Fort Myers,11/6/18,26.513892,-81.8601205
Mirage Bay Luxury Apartments Pool,14401 Metro Parkway,Fort Myers,11/6/18,26.53434213,-81.85254278
Harbor Lakes Clubhouse At Bonita Bay Pool,27010 Lake Harbor Court,Bonita Springs,11/2/18,26.3451796,-81.8206642
Wild Pines of Bonita Bay Spa,3600 Wild Pines Drive,Bonita Springs,11/1/18,26.3494705,-81.8133661
Harbor Lakes Clubhouse At Bonita Bay Spa,27010 Lake Harbor Court,Bonita Springs,11/2/18,26.3451796,-81.8206642
Mystic Ridge @ Pelican Landing Pool,25190 Goldcrest Drive,Bonita Springs,11/1/18,26.3724012,-81.8270478
The Reef Phase II Pool,19655  Three Oaks Parkway,Fort Myers,11/1/18,26.47224291,-81.81220135
Sunset Towers Apartments Condo Pool,4803 Sunset Court,Cape Coral,2/20/19,26.5624381,-81.9638139
Hidden Harbor Lodge Pool,17320 Hidden Estates Circle,Fort Myers,2/15/19,26.4882784,-81.8538269
The Villas of Bethany Trace Pool,401 Bethany Village Circle,Lehigh Acres,2/19/19,26.58779624,-81.62682534
La Quinta Inn & Suites Pool,9521 Marketplace Road,Fort Myers,11/13/18,26.5496772,-81.7974817
Dolphin Run Apartments Pool,2310 Maple Avenue,Fort Myers,11/6/18,26.62374997,-81.86592004
Orange Grove Home & RV Park Pool,647 Nuna Avenue,Fort Myers,11/15/18,26.6647311,-81.8173398
Mission Monterey Pool,1455 Thistledown Way,Fort Myers,11/6/18,26.6034558,-81.8854867
Wyndham Bay Pool At The Legends,14561 Sherbrook Place,Fort Myers,11/19/18,26.5281102,-81.818684
The Neptune Pool (1),2310 Estero Boulevard,Fort Myers Beach,11/7/18,26.4489793,-81.945357
Fairway Dunes Pool,10030 Fairway Dunes Lane,Bonita Springs,11/20/18,26.3688377,-81.7870343
Fairway Dunes Pool,10030 Fairway Dunes Lane,Bonita Springs,11/19/18,26.3688377,-81.7870343
Chadwyck Square Pool,25121 Divot Drive,Bonita Springs,10/30/18,26.37240923,-81.77903226
Bella Terra Pool 1,20070 Bella Terra Boulevard,Estero,11/19/18,26.4490031,-81.7311047
Daniels Park Pool,14000 Dan Park Loop,Fort Myers,11/9/18,26.5423319,-81.812862
Mystic Ridge @ Pelican Landing Spa,25190 Goldcrest Drive,Bonita Springs,11/14/18,26.3724012,-81.8270478
Mystic Ridge @ Pelican Landing Spa,25190 Goldcrest Drive,Bonita Springs,11/1/18,26.3724012,-81.8270478
Southbridge At Pelican Landing Spa,3401 Ballybridge Circle,Bonita Springs,11/8/18,26.3752043,-81.8111005
Bella Terra Spa 1,20070 Bella Terra Boulevard,Estero,11/19/18,26.4490031,-81.7311047
Palm Villas Apartments Pool,8372 Beacon Boulevard,Fort Myers,10/16/18,26.5699843,-81.8661928
Waterford Condo At Bonita Bay Pool I,3347 Wild Rose Court,Bonita Springs,11/14/18,26.3552544,-81.8100572
Arbor Strand at Bonita Bay Pool,27483 Arbor Strand Drive,Bonita Springs,11/15/18,26.34148609,-81.81703593
The Lakes At Three Oaks Spa,9160 Pittsburgh Boulevard,Fort Myers,8/3/18,26.4786101,-81.80131
Aspen Indian Creek Iroquois Pool,17340 San Carlos Boulevard,Fort Myers Beach,9/26/18,26.4900728,-81.9482163
Cape Coral Apartments Pool,827 SE 46th Lane,Cape Coral,11/29/18,26.5658156,-81.9564096
MUSA At Daniels Spa,13501 Eagle Ridge Drive,Fort Myers,12/4/18,26.5443994,-81.8292034
MUSA At Daniels Pool,13501 Eagle Ridge Drive,Fort Myers,12/4/18,26.5443994,-81.8292034
Best Western Airport Inn Spa,8955 Daniels Parkway,Fort Myers,11/29/18,26.5486451,-81.8067753
Champions Green Condo Spa,11990 Champions Green Way,Fort Myers,7/26/18,26.57728201,-81.75819592
Kay's Apartments Pool,1640 Orchid Boulevard,Cape Coral,11/27/18,26.5709951,-81.9417004
Tropical Garden Apartments Pool,4030 Coronado Parkway SW,Cape Coral,11/27/18,26.5765863,-81.9454333
Windsor Manor Condo Pool,828 Victoria Drive,Cape Coral,11/29/18,26.5583322,-81.9556804
Best Western Airport Inn Pool,8955 Daniels Parkway,Fort Myers,11/29/18,26.5486451,-81.8067753
Brantley Pines Apartments Pool,1801 Brantley Road,Fort Myers,10/2/18,26.5630775,-81.8765101
Raintree R.V. Resort Spa,19250 N Tamiami Trail,Fort Myers,10/4/18,26.7443286,-81.9142603
Davis Woods Condo Pool,16881 Davis Road,Fort Myers,12/6/18,26.4965752,-81.9763297
Harbor Place Condo Pool,14803 Laguna Drive,Fort Myers,12/6/18,26.5273751,-81.953421
Oak Hammock At The Brooks Spa,10381 Autumn Breeze Drive,Bonita Springs,3/19/19,26.4116949,-81.7760732
The Reserve At Pelican Landing Pool,24401 Reserve Court,Bonita Springs,3/19/19,26.3845541,-81.8232562
The Reserve @ Pelican Landing Spa,24401 Reserve Court,Bonita Springs,3/19/19,26.3845541,-81.8232562
Mystic Ridge @ Pelican Landing Spa,25190 Goldcrest Drive,Bonita Springs,3/19/19,26.3724012,-81.8270478
Meadows of Estero Spa,21516 Baccarat Lane,Estero,3/4/19,26.4267456,-81.8152543
Southbridge At Pelican Landing Spa,3401 Ballybridge Circle,Bonita Springs,3/19/19,26.3752043,-81.8111005
Laguna Lakes Pool,15300 Lakes of Laguna Boulevard,Fort Myers,3/21/19,26.5181427,-81.9068003
Forest Creek Villas Pool,10968 Leitner Creek Drive,Bonita Springs,3/28/19,26.3448128,-81.7723999
Raintree R.V. Resort Pool,19250 N Tamiami Trail,North Fort Myers,3/25/19,26.7443286,-81.9142603
Tara Woods Pool,19376 N Tamiami Trail,Fort Myers,3/25/19,26.7488652,-81.9108082
Tara Woods Spa,19376 N Tamiami Trail,North Fort Myers,3/25/19,26.7488652,-81.9108082
Oakwood Villas Spa At Bonita Bay,27170 Oakwood Lake Drive,Bonita Springs,2/26/19,26.3445757,-81.815512
Bonita Fairways Clubhouse Spa,26771 Bonita Fairways Drive,Bonita Springs,2/27/19,26.3491484,-81.7899582
The Hamptons at Bonita Bay Spa,26964 Wyndhurst Court,Bonita Springs,2/27/19,26.34729853,-81.83090396
Village Creek Condo Spa,2825 Winkler Avenue,Fort Myers,3/18/19,26.6054615,-81.8535138
Westchase Apartments Wading Pool,3810 Metro Parkway,Fort Myers,3/25/19,26.60770968,-81.85273629
Palm Villas Apartments Pool,8372 Beacon Boulevard,Fort Myers,3/26/19,26.5699843,-81.8661928
Oak Crest Villas I Pool,5371 Glenlivet Road,Fort Myers,3/25/19,26.566565,-81.8691473
Ocean Harbor Spa 1 (Left),4741 Estero Boulevard,Fort Myers Beach,4/2/19,26.4383,-81.920752
Ocean Harbor Spa 2 (Right),4741 Estero Boulevard,Fort Myers Beach,4/2/19,26.4383,-81.920752
Bellavista @ Miromar Lakes Spa,10100 Bellavista Circle,Fort Myers,3/26/19,26.4787813,-81.7834438
Colonial Resort Motel Apts. Swimming Pool,4913 Vincennes Court,Cape Coral,4/2/19,26.5592654,-81.9515892
R & L Ambassador Suites Pool,6950 Estero Boulevard,Fort Myers Beach,3/27/19,26.4152074,-81.9017198
Bellagio Gardens Pool,4921-5007 SW 16th Place,Cape Coral,4/1/19,26.55705217,-82.00768268
The Enclave At Rapallo Pool,8651 Piazza Del Lago Circle,Estero,3/27/19,26.41096756,-81.80791592
Harbor Place Condo Spa,14803 Laguna Drive,Fort Myers,12/6/18,26.5273751,-81.953421
Fairway Bend Village Pool,8634 Fairway Bend Drive,Fort Myers,2/28/19,26.4612244,-81.8116691
Mariner's Boathouse Spa,7630 Estero Boulevard,Fort Myers Beach,2/28/19,26.4080775,-81.8977075
Caribbean Beach Club Spa,7600 Estero Boulevard,Fort Myers Beach,2/28/19,26.4085528,-81.8980798
Lago Del Sol Clubhouse Spa,10770 Clear Lake Loop,Fort Myers,1/10/19,26.51974676,-81.93396461
Punta Rassa Condo Spa,15008 Punta Rassa Road,Fort Myers,1/11/19,26.48558187,-82.00961141
Mastique Pool,12651 Mastique Beach Boulevard,Fort Myers,1/9/19,26.4884434,-81.9645423
Mastique Spa,12651 Mastique Beach Boulevard,Fort Myers,1/9/19,26.4884434,-81.9645423
Cedar Creek Spa,8880 Creek Run Drive,Bonita Springs,3/5/19,26.36563168,-81.80666251
Caribbean Beach Club Pool,7600 Estero Boulevard,Fort Myers Beach,2/28/19,26.4085528,-81.8980798
Tip Top Isles Waterfront Resort & Marina Pool,17863 San Carlos Boulevard,Fort Myers Beach,3/5/19,26.4818498,-81.9473599
Horizon Village Spa,9200 Littleton Road,North Fort Myers,3/4/19,26.6992311,-81.91275
Compass Pointe Condo Pool,13161 Chesterson Avenue,Fort Myers,3/5/19,26.55068158,-81.90667183
Westminster Community Center Spa,2001 Oxford Ridge Circle,Lehigh Acres,3/4/19,26.604133,-81.7317517
Hyatt Place Pool - Fort Myers,2600 Champion Ring Road,Fort Myers,2/22/19,26.6328268,-81.8017784
Westminster Community Center Spa,2001 Oxford Ridge Circle,Lehigh Acres,2/28/19,26.604133,-81.7317517
Coconut Shores Clubhouse Spa,23291 Coconut Island Drive,Estero,10/11/18,26.3996904,-81.8165161
Coconut Shores Clubhouse Pool,23291 Coconut Island Drive,Estero,10/11/18,26.3996904,-81.8165161
The Reef Phase II Pool,19655  Three Oaks Parkway,Fort Myers,10/11/18,26.47224291,-81.81220135
The Fountains at Forestwood Pool,1735 Brantley Road,Fort Myers,10/9/18,26.562836,-81.8796479
Reflection Cove Clubhouse Spa,7861 Reflection Cove Drive,Fort Myers,10/9/18,26.54278476,-81.88524722
Gasparilla Inn Spa,451 Gilchrist Avenue,Boca Grande,5/23/19,26.77018807,-82.25244651
Island House Swimming Pool,570 Gulf Boulevard,Boca Grande,5/22/19,26.7293249,-82.2630466
Castella At The Colony Spa,24021 Via Castella,Bonita Springs,5/15/19,26.3884925,-81.8368266
Palm Villas Apartments Pool,8372 Beacon Boulevard,Fort Myers,11/2/18,26.5699843,-81.8661928
Sunrise Towers Apartments Pool,2825 Central Avenue,Fort Myers,4/25/19,26.62592258,-81.86406782
Olde Hickory Verandas Pool,14500 Hickory Hill Court,Fort Myers,5/8/19,26.53058539,-81.80432111
Bayside Village of Sanibel Pool,557 N Yachtsman Drive,Sanibel,10/4/18,26.4502178,-82.0286225
Bayside Village of Sanibel Pool,557 N Yachtsman Drive,Sanibel,10/3/18,26.4502178,-82.0286225
Bayshore Mobile Home Village Pool,15711 Shoreline Boulevard,North Fort Myers,10/3/18,26.6943904,-81.8637676
Estero Bayside Spa,22628 Island Pines Way,Fort Myers Beach,10/3/18,26.417649,-81.8972692
Manatee Bay Inn Pool,932 Third Street,Fort Myers Beach,10/3/18,26.455524,-81.9560683
Cooks Island House Motel Pool,701 Estero Boulevard,Fort Myers Beach,10/3/18,26.4560209,-81.9594221
Vista Palms Pool,10276 Stafford Creek Boulevard,Lehigh Acres,10/1/18,26.59411277,-81.64273255
The Villas of Bethany Trace Pool,401 Bethany Village Circle,Lehigh Acres,10/1/18,26.58779624,-81.62682534
Beacon Square Phase I Pool,10553 Putnam Court,Lehigh Acres,10/1/18,26.5911857,-81.6422248
Caloosa Lakes The Grove Clubhouse Pool,10701 Marble Brook Boulevard,Lehigh Acres,10/1/18,26.5906364,-81.6356282
Caloosa Lakes The Grove Clubhouse Pool,10701 Marble Brook Boulevard,Lehigh Acres,10/5/18,26.5906364,-81.6356282
Capeway Condo Pool,4906 Victoria Drive,Cape Coral,9/27/18,26.5599868,-81.9563142
Mystic Ridge @ Pelican Landing Spa,25190 Goldcrest Drive,Bonita Springs,10/8/18,26.3724012,-81.8270478
Mystic Ridge @ Pelican Landing Pool,25190 Goldcrest Drive,Bonita Springs,10/8/18,26.3724012,-81.8270478
Sandpiper Greens at Pelican Landing Spa,25152 Sandpiper Greens Court,Bonita Springs,10/8/18,26.3709506,-81.82586861
The Pines At Eagle Ridge Spa,7170 Golden Eagle Court,Fort Myers,5/9/19,26.5301449,-81.8348856
Olde Hickory Verandas Spa,14500 Hickory Hill Court,Fort Myers,5/8/19,26.53058539,-81.80432111
Esplanade Spa,24384 Baltic Avenue,Punta Gorda,5/9/19,26.7699274,-82.0429153
Suns Condos Pool,2950 Royal Palm Avenue,Fort Myers,5/6/19,26.6236821,-81.8633867
Summerwind At Gateway Spa,12030 Summergate Circle,Fort Myers,1/15/19,26.564002,-81.7578006
Captiva Shores Condo Pool,15411 Captiva Drive,Captiva,4/18/19,26.5167587,-82.1912362
Outrigger Beach Resort Pool,6200 Estero Boulevard,Fort Myers Beach,4/17/19,26.4227744,-81.9059494
"Joewood Bath and Tennis Club, Inc. Pool (East End Amenities Pool)",4980 Joewood Drive,Sanibel,4/18/19,26.45713626,-82.14768863
Summerwind At Gateway Spa,12030 Summergate Circle,Fort Myers,4/17/19,26.564002,-81.7578006
Butterknife Subdivision Pool,136 Butterknife Place,Sanibel,9/18/18,26.46138341,-82.10235652
Signal Inn Spa,1811 Olde Middle Gulf Drive,Sanibel,9/18/18,26.4277747,-82.061051
Signal Inn Condo Pool,1811 Olde Middle Gulf Drive,Sanibel,9/18/18,26.4277747,-82.061051
Bayshore Commons Pool,15111 Caspian Tern Court,North Fort Myers,9/18/18,26.694378,-81.851356
Coronado Condo Pool,11259 Bienvenida Way,Fort Myers,8/22/18,26.5335632,-81.9333472
Riviera Club Condo Spa,7500 Estero Boulevard,Fort Myers Beach,8/22/18,26.4092729,-81.8990898
Harbour Links Spa,14332 Harbour Links Court,Fort Myers,8/21/18,26.5313665,-81.9360556
Fort Myers Beach Family Pool,2600 Oak Street,Fort Myers Beach,9/21/18,26.4486904,-81.9407566
Waterstone Capital Croix Pool,1901 Linhart Avenue,Fort Myers,11/29/18,26.6252748,-81.8734566
Peppertree Apartments Pool,3027 Broadway,Fort Myers,11/29/18,26.62148099,-81.86784157
Colonial Commons Spa,4590 Winkler Avenue,Fort Myers,8/2/18,26.63435712,-81.83915152
South Pointe West Lennex Pool,9380 Lennex Lane,Fort Myers,8/13/18,26.5504107,-81.9097873
Morningside Spa At The Brooks,23120 Rosedale Drive,Bonita Springs,9/19/18,26.4003429,-81.8028496
Palmetto Ridge Spa (Shadow Wood),9150 Palmetto Ridge Drive,Bonita Springs,9/19/18,26.4196847,-81.8020569
The Reef Phase II Pool,19655  Three Oaks Parkway,Fort Myers,9/20/18,26.47224291,-81.81220135
Hideaway Village Pool,5607 Estero Boulevard,Fort Myers Beach,8/21/18,26.4300425,-81.9124158
Mosaic at the Forum pool,3100 Champion Ring Road,Fort Myers,8/22/18,26.62359552,-81.80342612
Palm Vista Apartments Pool,3726 Central Avenue,Fort Myers,9/21/18,26.607641,-81.86490261
Garden Cove Clubhouse Pool,12081 Iona Road,Fort Myers,9/25/18,26.5163864,-81.9529778
Tavira At Bonita Bay Spa,4851 Bonita Bay Boulevard,Bonita Springs,2/11/19,26.3577591,-81.8346162
Coconut Shores Clubhouse Spa,23291 Coconut Island Drive,Estero,2/12/19,26.3996904,-81.8165161
Indigo Shores Spa @ West Bay,5001 Royal Shore Drive,Estero,2/12/19,26.41970239,-81.72340607
Lago Del Sol Clubhouse Spa,10770 Clear Lake Loop,Fort Myers,2/8/19,26.51974676,-81.93396461
Condominium Association of the Village Pool,2135 Crystal Drive,Fort Myers,2/25/19,26.5652351,-81.8697881
Lake Arrowhead M/V Pool,3122 Old Farmhouse Road,North Fort Myers,1/31/19,26.7091155,-81.8953658
Lake Arrowhead M/V Spa,3122 Old Farmhouse  Road,North Fort Myers,1/31/19,26.7091155,-81.8953658
Gardens at Bermuda Links Condo Spa 2,26699 Rosewood Pointe Drive,Bonita Springs,2/18/19,26.35021815,-81.79570703
Tidewater Amenity Center Spa,10700 Tidewater Key  Boulevard,Estero,2/19/19,26.4464659,-81.7764952
Tropical Sands Resort Spa,7785 Estero Boulevard,Fort Myers Beach,2/22/19,26.4079362,-81.8961075
Pelican Watch Condo Pool,2532 Estero Boulevard,Fort Myers Beach,2/21/19,26.4476478,-81.9426772
Estero Island Beach Villas Pool,250 Estero Boulevard,Fort Myers Beach,2/21/19,26.4599312,-81.9648575
Lighthouse Commons Pool (at FSW),13301 Florida South Western Parkway,Fort Myers,2/19/19,26.55667435,-81.903357
San Simeon Spa,3801 Cherrybrook Loop,Fort Myers,5/14/19,26.6062809,-81.8178078
Villas of Fountain Lakes Spa,22161 Sundancer Court,Estero,8/27/18,26.4147069,-81.8164971
Indigo Shores Spa @ West Bay,5001 Royal Shore Drive,Estero,8/21/18,26.41970239,-81.72340607
Captiva Shores Condo Pool,15411 Captiva Drive,Captiva,4/17/19,26.5167587,-82.1912362
Waterford at Bonita Bay Phase II Pool,26258 Devonshire Court,Bonita Springs,2/25/19,26.356717,-81.8102856
Gardens at Bermuda Links Condo Spa 2,26699 Rosewood Pointe Drive,Bonita Springs,2/25/19,26.35021815,-81.79570703
Cypress Lake Country Club Villas Pool,8690 Patty Berg Court,Fort Myers,2/25/19,26.5337348,-81.8978227
Cypress Lake Country Club Villas Spa,8690 Patty Berg Court,Fort Myers,2/25/19,26.5337348,-81.8978227
Windsor Garden Apartments Pool,3855 Broadway,Fort Myers,2/28/19,26.6057845,-81.8680237
Coronado Condo Spa,11259 Bienvenida Way,Fort Myers,8/22/18,26.5335632,-81.9333472
Streamside Recreation Spa,9076 Spring Run Boulevard,Bonita Springs,10/23/18,26.3927745,-81.7954454
Sandpiper Greens at Pelican Landing Spa,25152 Sandpiper Greens Court,Bonita Springs,10/18/18,26.3709506,-81.82586861
The Reserve @ Pelican Landing Spa,24401 Reserve Court,Bonita Springs,10/22/18,26.3845541,-81.8232562
Sawgrass Point Condo Spa,4200 Sawgrass Point Drive,Bonita Springs,10/22/18,26.3813325,-81.8224735
Arbor Strand at Bonita Bay Pool,27483 Arbor Strand Drive,Bonita Springs,10/24/18,26.34148609,-81.81703593
Sandpiper Greens at Pelican Landing Spa,25152 Sandpiper Greens Court,Bonita Springs,10/23/18,26.3709506,-81.82586861
Wild Pines of Bonita Bay Pool,3650 Wild Pines Drive,Bonita Springs,10/24/18,26.35500569,-81.82894073
Hawthorne Pool 2 (Clubhouse),10401 River Rock Boulevard,Bonita Springs,10/24/18,26.3606907,-81.7693285
Cordera Clubhouse Pool,10861 Alvara Way,Bonita Springs,10/25/18,26.3717975,-81.7728188
The Pines At Eagle Ridge Spa,7170 Golden Eagle Court,Fort Myers,5/7/19,26.5301449,-81.8348856
Eagle Ridge Lakes Clubhouse Spa,13890 Eagle Ridge Drive,Fort Myers,5/7/19,26.54353447,-81.83176205
Bonita Lakes Interactive Water Feature,23235 Salinas Way,Bonita Springs,4/29/19,26.35549472,-81.75195016
Palm Vista Apartments Pool,3726 Central Avenue,Fort Myers,2/8/19,26.607641,-81.86490261
Discovery Village at the Forum,2645 Forum  Boulevard,Fort Myers,4/30/19,26.66928829,-81.76046204
Laurelwood Pool,10725 Laurel Park Drive,Lehigh Acres,4/25/19,26.61548702,-81.59017133
Four Points By Sheraton Spa,13600 Treeline Avenue S,Fort Myers,5/2/19,26.5456262,-81.7873987
Casa Di Fiori Clubhouse Spa,1051-1155 Winding Pines Circle,Cape Coral,4/30/19,26.6938848,-81.9452399
Captiva Shores Condo Pool,15411 Captiva Drive,Captiva,9/4/18,26.5167587,-82.1912362
Nani Li'i Condo Pool,11411 Dickey Lane,Captiva,8/29/18,26.5237016,-82.1879104
Breckenridge Phase IV Pool,20111 Ian Court,Estero,4/10/19,26.4443211,-81.8228349
Islands End Condo Spa,8402 Estero Boulevard,Fort Myers Beach,4/9/19,26.4043561,-81.8841433
Glen Abbey Condo Spa,8010 Glen Abbey Circle,Fort Myers,4/9/19,26.52258103,-81.8252995
The Park at Positano Spa,2719 Colonial Boulevard,Fort Myers,4/8/19,26.59731424,-81.85548177
Tropical Garden Apartments Pool,4030 Coronado Parkway SW,Cape Coral,4/8/19,26.5765863,-81.9454333
Colonial Resort Motel Apts. Swimming Pool,4913 Vincennes Court,Cape Coral,9/11/18,26.5592654,-81.9515892
Brookshire Village Spa,6670 Southwell Drive,Fort Myers,9/11/18,26.5538566,-81.8401425
Brookshire Village Pool,6670 Southwell Drive,Fort Myers,9/11/18,26.5538566,-81.8401425
Indigo Shores Spa @ West Bay,5001 Royal Shore Drive,Estero,8/30/18,26.41970239,-81.72340607
Islands At Three Oaks Spa,18225 Horseshoe Bay Circle,Fort Myers,8/30/18,26.4762012,-81.7958775
Windward Passage Spa,418 Estero Boulevard,Fort Myers Beach,8/30/18,26.4587868,-81.9637471
Mariner's Boathouse Spa,7630 Estero Boulevard,Fort Myers Beach,8/30/18,26.4080775,-81.8977075
Whisperwood I Pool,13446 Heald Lane,Fort Myers,4/26/19,26.4996046,-81.9763611
Autumn Lake Spa (Spring Run),23500 Sandycreek Terrace,Bonita Springs,3/11/19,26.3962701,-81.7986934
Streamside Recreation Pool,9076 Spring Run Boulevard,Bonita Springs,3/11/19,26.3927745,-81.7954454
Streamside Recreation Spa,9076 Spring Run Boulevard,Bonita Springs,3/11/19,26.3927745,-81.7954454
Autumn Lake Pool (Spring Run),23500 Sandycreek Terrace,Bonita Springs,3/11/19,26.3962701,-81.7986934
Town Hall Amenity Center Pool,3089 River Hall Parkway,Alva,3/8/19,26.7289572,-81.65266868
Colonnade At The Forum Pool,3405 Antica Street,Fort Myers,2/11/19,26.6151351,-81.7931176
Stars Complex Pool,2980 Edison Avenue,Fort Myers,12/12/18,26.6323234,-81.8532986
Bay Harbor Apartments Spa,9601 Bay Harbor Circle,Fort Myers,3/12/19,26.5397561,-81.9143833
White Cap Condominium Pool,4631 Estero Boulevard,Fort Myers Beach,3/13/19,26.4371983,-81.9216251
Windward Point Condo Spa,400 Lenell Road,Fort Myers Beach,3/12/19,26.4150032,-81.8933934
Tuscany Gardens Spa,6470 Aragon Way,Fort Myers,3/13/19,26.5513253,-81.8488684
Parkwood Villas HOA II Pool,229 Beth Stacy Boulevard,Lehigh Acres,10/30/18,26.60752702,-81.65506824
Parkwood Villas Pool 1,19 Parkwood Villas Court,Lehigh Acres,10/30/18,26.6101169,-81.6551486
Pine Island Village Pool,4400 Turtle Trail Lane,Saint James City,3/20/19,26.53870186,-82.11309255
Camden Square Pool,12021 Winfield Circle,Fort Myers,1/3/19,26.5670695,-81.8452455
Corkscrew Woodlands Spa,21798 Corkscrew Woodlands Boulevard,Estero,1/8/19,26.41970239,-81.72340607
Coralina Apartments Pool,3305 Grant Cove Circle,Cape Coral,12/26/18,26.6362246,-82.0303945
Tuscany Court Spa,3800 Agualinda Boulevard,Cape Coral,12/17/18,26.581828,-82.0179854
Cape Christian Fellowship Park Splash Deck,2110 Chiquita  Boulevard S,Cape Coral,12/17/18,26.6130295,-82.0083478
Gleason Pool,913 Gleason Parkway,Cape Coral,12/7/18,26.5928194,-81.9948122
Tuscany Court Pool,3800 Agualinda Boulevard,Cape Coral,12/17/18,26.581828,-82.0179854
Casa Bonita Grande Condo Spa,25900 Hickory Boulevard,Bonita Springs,12/4/18,26.359766,-81.8603169
Windsor East Apartments Pool,3675 Broadway,Fort Myers,12/6/18,26.6095166,-81.8655585
Pebble Court Apartments Pool,2974 Jackson Street,Fort Myers,12/6/18,26.6230231,-81.866408
Lago Del Sol Clubhouse Pool,10770 Clear Lake Loop,Fort Myers,12/19/18,26.51974676,-81.93396461
Hampton Park Amenity Center Pool,10201 Gateway Lakes Boulevard,Fort Myers,12/27/18,26.5901383,-81.7465019
Marina Bay Lap Pool,10100  Silver Ridge Boulevard,Fort Myers,12/20/18,26.5718029,-81.7891173
Sanibel Harbour Tower North Spa,17080 Harbour Pointe Drive,Fort Myers,12/12/18,26.4916877,-82.0113571
Lee Plantation Spa,10440 Old South Way,Fort Myers,12/26/18,26.5022712,-81.9297071
Lago Del Sol Clubhouse Spa,10770 Clear Lake Loop,Fort Myers,12/19/18,26.51974676,-81.93396461
Palms of Monterrey Spa,15250 Sonoma Drive,Fort Myers,12/26/18,26.51147217,-81.90718933
Hidden Links Spa,12132 Hidden Links Drive,Fort Myers,12/27/18,26.5888949,-81.7545369
South Community Spa,10103 Colonial Country Club,Fort Myers,12/18/18,26.61285126,-81.78623348
Mandolin Bay Villas Condo Spa,15990 Mandolin Bay Drive,Fort Myers,12/18/18,26.5101833,-81.9522632
Bellini Clubhouse Spa,10551 Via Milano Drive,Fort Myers,12/26/18,26.4820626,-81.7814384
McGregor Woods Pool,12260 McGregor Woods Circle,Fort Myers,12/18/18,26.5094108,-81.957125
Santa Barbara Apartments Pool,4302 Santa Barbara Boulevard,Cape Coral,12/7/18,26.57320487,-81.97419374
Tropic Isle Pool,15175 Stringfellow Road,Bokeelia,12/27/18,26.6822096,-82.1523986
Candlewood Suites Pool,9740 Commerce Center Court,Fort Myers,12/27/18,26.4988829,-81.9136481
Kelly Greens Community II Spa,12048 Kelly Greens Boulevard,Fort Myers,1/23/19,26.4950018,-81.9519348
Grande Cay Recreation Spa,14561 Grande Cay Circle,Fort Myers,1/29/19,26.52524672,-81.95006681
Gulf Waters Homeowners Assoc Spa,11201 Summerlin Square Drive,Fort Myers Beach,9/25/18,26.49293759,-81.93795037
San Simeon Pool,3801 Cherrybrook Loop,Fort Myers,5/14/19,26.6062809,-81.8178078
The Brittany Pool,4050 Winkler Avenue Extension,Fort Myers,1/10/19,26.63435712,-81.83915152
Lindsford Spa,4101 Dutchess Park Road,Fort Myers,1/10/19,26.6169578,-81.8323931
Windsor Garden Apartments Pool,3855 Broadway,Fort Myers,1/10/19,26.6057845,-81.8680237
Paloma Pool,26051 Grand Prix  Drive,Bonita Springs,1/29/19,26.35549472,-81.75195016
Islands At Three Oaks Spa,18225 Horseshoe Bay Circle,Fort Myers,1/24/19,26.4762012,-81.7958775
Southwind Village Pool,8465 Southbridge Drive,Fort Myers,1/23/19,26.46060576,-81.81285995
Arbor Strand at Bonita Bay Pool,27483 Arbor Strand Drive,Bonita Springs,5/13/19,26.34148609,-81.81703593
Quail Run Condo Pool,7081 Quail Run Court E,Fort Myers,5/14/19,26.5217059,-81.9490757
Davis Woods Condo Pool,16881 Davis Road,Fort Myers,5/16/19,26.4965752,-81.9763297
Olde Hickory Golf & Country Club Pool,14670 Old Hickory Boulevard,Fort Myers,5/15/19,26.526758,-81.8039714
Reflection Isles Pool,11375 Reflection Isles Boulevard,Fort Myers,5/15/19,26.5789525,-81.802971
Coconut Creek Spa,12491 McGregor Palms Drive,Fort Myers,5/16/19,26.50413109,-81.96301077
Meadowlark Cove Quad-Plex Pool,11872-11886 Quail Run Drive,Fort Myers,5/14/19,26.52272057,-81.94883809
Stella Del Mar Pool,15072 Stella Del Mar Lane,Fort Myers,5/15/19,26.5221605,-81.952183
Town Hall Amenity Center Pool,3089 River Hall Parkway,Alva,5/17/19,26.7289572,-81.65266868
Bay Harbor Club Spa 1 (North),26225 Hickory Boulevard,Bonita Springs,12/5/18,26.3574267,-81.8560372
The Reef Phase II Pool,19655  Three Oaks Parkway,Fort Myers,8/30/18,26.47224291,-81.81220135
Estero Island Yacht & Racquet Club Pool,200 Lenell Road 112,Fort Myers Beach,9/12/18,26.4148986,-81.896718
Palm Terrace Pool,3333 Estero Boulevard,Fort Myers Beach,9/12/18,26.4439727,-81.9329035
Sunrise Towers Apartments Pool,2825 Central Avenue,Fort Myers,1/31/19,26.62592258,-81.86406782
Laurel Estates M/V Pool,2760 Deerfield  Drive,North Fort Myers,1/31/19,26.7058838,-81.8926612
Wyndham Garden Fort Myers Beach Pool,6890 Estero Boulevard,Fort Myers Beach,10/31/18,26.4164661,-81.902041
Pelican Watch Condo Pool,2532 Estero Boulevard,Fort Myers Beach,10/23/18,26.4476478,-81.9426772
Leisure Time Campsite Pool,"24400 S Tamiami Trail, Lot 171",Bonita Springs,10/29/18,26.38534248,-81.8088535
Sunset Condo Pool,6400 Estero Boulevard,Fort Myers Beach,10/23/18,26.4217033,-81.9051687
Islands End Condo Spa,8402 Estero Boulevard,Fort Myers Beach,10/30/18,26.4043561,-81.8841433
Oakwood Villas Spa At Bonita Bay,27170 Oakwood Lake Drive,Bonita Springs,10/30/18,26.3445757,-81.815512
Sawgrass Point Condo Spa,4200 Sawgrass Point Drive,Bonita Springs,10/25/18,26.3813325,-81.8224735
Harbor Lakes Clubhouse At Bonita Bay Spa,27010 Lake Harbor Court,Bonita Springs,10/30/18,26.3451796,-81.8206642
Lovers Key Beach Club Spa,8701 Estero Boulevard,Fort Myers Beach,10/31/18,26.4049799,-81.8775194
Cooks Island House Motel Pool,701 Estero Boulevard,Fort Myers Beach,10/11/18,26.4560209,-81.9594221
Hawthorne Spa 2 (Clubhouse),10401 River Rock Boulevard,Bonita Springs,10/24/18,26.3606907,-81.7693285
Boardwalk Caper Condo Spa No.2,18030 San Carlos Boulevard,Fort Myers Beach,10/26/18,26.4757049,-81.9518229
Cross Creek of Fort Myers Terrace I Spa,13256 White Marsh Lane,Fort Myers,11/29/18,26.5491853,-81.8294102
Cross Creek Clubhouse Spa,13050 Cross Creek Boulevard,Fort Myers,11/29/18,26.5475653,-81.8303104
Spanish Harbor Condo Pool,9395 Pennsylvania Avenue 43,Bonita Springs,11/29/18,26.3386716,-81.7964793
Bermuda Isles & Cays S & R Club Pool,3876 Essex Place,Bonita Springs,11/29/18,26.3228772,-81.8164577
Casa Loma Motel On The Waterfront pool,3608 Del Prado Boulevard S,Cape Coral,1/31/19,26.58568589,-81.94252686
1818 Parkway Condo Pool,1801 Samantha Gayle  Way,Cape Coral,2/5/19,26.55565642,-82.02055708
Parkwood Villas Pool 1,19 Parkwood Villas Court,Lehigh Acres,1/31/19,26.6101169,-81.6551486
Brookdale- College Parkway Pool,8351 College Parkway,Fort Myers,3/18/19,26.5550226,-81.8945692
Brookdale - College Parkway Pool 2,8351 College Parkway,Fort Myers,3/18/19,26.5550226,-81.8945692
Chabad Lubavitch Pool,5620 Winkler Road,Fort Myers,3/18/19,26.56951492,-81.89999808
Burning Tree At Bonita Bay Neighborhood Pool,27045 Kindlewood Lane,Bonita Springs,10/29/18,26.3451158,-81.8111652
Tip Top Isles Waterfront Resort & Marina Pool,17863 San Carlos Boulevard,Fort Myers Beach,10/24/18,26.4818498,-81.9473599
Castle Beach Condo Pool,8300 Estero Boulevard,Fort Myers Beach,10/26/18,26.4040558,-81.8871044
Snook Bight Marina Pool,4765 Estero Boulevard,Fort Myers Beach,10/24/18,26.43704542,-81.92163634
Island Beach Club on Estero Bay Spa,8751 Estero Boulevard,Fort Myers Beach,10/31/18,26.4057829,-81.877446
Harbor Lakes Clubhouse At Bonita Bay Pool,27010 Lake Harbor Court,Bonita Springs,10/30/18,26.3451796,-81.8206642
Santa Maria Condo Spa 2,7317 Estero Boulevard,Fort Myers Beach,10/18/18,26.4118672,-81.8981562
Villas of Fountain Lakes Pool,22161 Sundance Court,Estero,2/4/19,26.4147069,-81.8164971
Villas of Fountain Lakes Spa,22161 Sundancer Court,Estero,2/4/19,26.4147069,-81.8164971
The Residences At Coconut Point Spa,23155 Amgci Way,Estero,2/4/19,26.4012824,-81.8062999
Marsh Landing Community Spa,22901 Marsh Landing Boulevard,Estero,2/6/19,26.4072513,-81.8136153
Matanzas Inn Pool,414 Crescent Street,Fort Myers Beach,2/7/19,26.45546392,-81.95373277
Villa Medici Pool,15770 Portofino Springs Boulevard,Fort Myers,2/5/19,26.5107049,-81.9082075
Royal Beach Club Spa,800 Estero Boulevard,Fort Myers Beach,1/31/19,26.4543246,-81.9582955
Tropical Sands Resort Spa,7785 Estero Boulevard,Fort Myers Beach,2/6/19,26.4079362,-81.8961075
Harbour House At The Inn Spa,450 Old San Carlos Boulevard,Fort Myers Beach,2/6/19,26.4561086,-81.9544382
"Kelly Greens Community Assoc V Man 4 ,5 & 6 pool",16468 Kelly Cove Drive,Fort Myers,2/4/19,26.4982266,-81.9521162
Sandalwood Estates Townhouse Spa,8890 Somerset Boulevard,Fort Myers,2/4/19,26.55362378,-81.9038347
The Landings - Flagship Village Condo Pool,4206 Flagship Drive,Fort Myers,2/6/19,26.55667435,-81.903357
"Kelly Greens Community Association V Manor IV, V & VI Spa",16470 Kelly Cove Drive,Fort Myers,2/4/19,26.4984294,-81.9525951
Sandalwood Estates Townhouse Pool,8890 Somerset Boulevard,Fort Myers,2/4/19,26.55362378,-81.9038347
Colonnade At The Forum Pool,3405 Antica Street,Fort Myers,2/8/19,26.6151351,-81.7931176
Paradise Gardens Apartments Pool,1206 SE 8th Street,Cape Coral,3/20/19,26.6374459,-81.9505637
Windsor Garden Apartments Pool,3855 Broadway,Fort Myers,1/31/19,26.6057845,-81.8680237
Bayview I At Bonita Bay Spa,4811 Island Pond Court,Bonita Springs,5/7/19,26.3507691,-81.8336473
Harbor Towers Spa,2090 Matecumbe Key Road,Punta Gorda,5/10/19,26.7642913,-82.055414
Majestic Palms (Royal Pointe) Spa,15000 Royal Pointe Lane,Fort Myers,5/8/19,26.49270755,-81.92552833
Casa Di Fiori Clubhouse Spa,1051-1155 Winding Pines Circle,Cape Coral,5/6/19,26.6938848,-81.9452399
Hampton Inn & Suites Fort Myers Beach Hotel pool,11281 Summerlin Square Drive,Fort Myers Beach,5/7/19,26.492181,-81.9386311
McGregor Park Commerical Spa,2510 Mc Gregor Park Circle,Fort Myers,5/7/19,26.52538293,-81.93423009
Parkwoods IV Townhouse Pool,5550 Woodrose Court,Fort Myers,5/13/19,26.56436605,-81.87136112
Days Inn & Suites Pool,10150 Daniels Parkway,Fort Myers,5/10/19,26.5461308,-81.789478
Bellavista @ Miromar Lakes Spa,10100 Bellavista Circle,Fort Myers,11/28/18,26.4787813,-81.7834438
Longlake Village At Pelican Landing Pool,3464 Lakecrest Drive,Bonita Springs,11/8/18,26.3814263,-81.8120576
The Reef Phase II Pool,19655  Three Oaks Parkway,Fort Myers,11/27/18,26.47224291,-81.81220135
Riverbend Golf Club Pool,6270 River Club Court,North Fort Myers,11/7/18,26.6842147,-81.8565544
Venetian Pointe Pool,15050 Cortona (8031 Gladiolus) Way,Fort Myers,11/14/18,26.49270755,-81.92552833
Santa Barbara Apartments Pool,4302 Santa Barbara Boulevard,Cape Coral,4/3/19,26.57320487,-81.97419374
Paradise Gardens Apartments Pool,1206 SE 8th Street,Cape Coral,3/28/19,26.6374459,-81.9505637
Coral Waters Apartments Pool,7225 Maida Lane,Fort Myers,1/9/19,26.5178781,-81.8807326
Cross Creek of Fort Myers Terrace I Spa,13256 White Marsh Lane,Fort Myers,1/10/19,26.5491853,-81.8294102
Rapallo Lake House Pool,8585 Via Garibaldi Circle,Estero,1/10/19,26.41682311,-81.8061096
The Enclave At Rapallo Pool,8651 Piazza Del Lago Circle,Estero,1/10/19,26.41096756,-81.80791592
Cypress Trail RV Resort - Main Clubhouse -Spa,5468  Tice Street,Fort Myers,1/10/19,26.66712981,-81.78670755
Southwind Preserve Pool,8668 Southwind Bay Circle,Fort Myers,1/9/19,26.4858859,-81.8982015
Jonathan's Bay Spa,6001 Jonathan's Bay Circle,Fort Myers,1/14/19,26.510766,-81.8652215
Marina Isle Cabana Pool @ Bonita Bay,27700 Marina Isle Court,Bonita Springs,1/14/19,26.3384842,-81.8307304
Lago Del Sol Clubhouse Spa,10770 Clear Lake Loop,Fort Myers,1/15/19,26.51974676,-81.93396461
Terra Mar Condo Pool,7100 Estero Boulevard,Fort Myers Beach,4/4/19,26.4144791,-81.9018353
Windsor Garden Apartments Pool,3855 Broadway,Fort Myers,4/4/19,26.6057845,-81.8680237
Windsor Garden Apartments Pool,3855 Broadway,Fort Myers,3/14/19,26.6057845,-81.8680237
Castle Beach Condo Pool,8300 Estero Boulevard,Fort Myers Beach,4/4/19,26.4040558,-81.8871044
Tip Top Isles Waterfront Resort & Marina Pool,17863 San Carlos Boulevard,Fort Myers Beach,3/7/19,26.4818498,-81.9473599
The Colony Sports Club Pool,4103 Pelican Colony Boulevard,Bonita Springs,1/15/19,26.35500569,-81.82894073
The Colony Sports Club Spa,4103 Pelican Colony Boulevard,Bonita Springs,1/15/19,26.35500569,-81.82894073
Kon Tiki Apartments Swimming Pool,4102 SE 19th Place,Cape Coral,1/29/19,26.5750034,-81.9344216
Snook Bight Marina Pool,4765 Estero Boulevard,Fort Myers Beach,11/29/18,26.43704542,-81.92163634
Cobblestone On The Lake Spa,4400 Cortina Circle,Fort Myers,12/10/18,26.63435712,-81.83915152
Oxford House Apartments Pool,3580 Central Avenue,Fort Myers,12/11/18,26.61152892,-81.86397537
St. Tropez Pool,2745 First Street,Fort Myers,12/10/18,26.6524056,-81.8584961
The Village at Indian Creek Condo Pool,15400 River Vista Drive,North Fort Myers,12/19/18,26.6868362,-81.8573573
Lake Arrowhead M/V Pool,3122 Old Farmhouse Road,North Fort Myers,12/17/18,26.7091155,-81.8953658
Palm Beach Landings Spa,2885 Palm Beach Boulevard,Fort Myers,12/26/18,26.6533673,-81.85546
Sunrise Towers Apartments Pool,2825 Central Avenue,Fort Myers,12/26/18,26.62592258,-81.86406782
Laurel Estates M/V Pool,2760 Deerfield  Drive,North Fort Myers,12/17/18,26.7058838,-81.8926612
Hibiscus Point at Bay Beach Spa,4485 Bay Beach Lane,Fort Myers Beach,1/29/19,26.4128959,-81.8955471
Royal Pelican Townhouse Condo Pool (North),4511 Bay Beach Lane,Fort Myers Beach,1/30/19,26.4119114,-81.896286
Marsh Landing Community Spa,22901 Marsh Landing Boulevard,Estero,2/14/19,26.4072513,-81.8136153
Cypress Hammock Pool,9650 Cypress Hammock Circle,Bonita Springs,3/13/19,26.3965336,-81.7943526
Estero Bayside Spa,22628 Island Pines Way,Fort Myers Beach,3/13/19,26.417649,-81.8972692
Marina Towers & Yacht Club Condominium Spa,8401 Estero Boulevard,Fort Myers Beach,3/14/19,26.4058229,-81.8843656
Windmill Village Pool,16131 N Cleveland Avenue,North Fort Myers,3/14/19,26.6992567,-81.90457467
Windmill Village Spa,16131 N Cleveland Avenue,North Fort Myers,3/14/19,26.6992567,-81.90457467
Majestic Golf Club Pool,350 Homestead Road S,Lehigh Acres,3/15/19,26.5740034,-81.6293648
Hidden Links Spa,12132 Hidden Links Drive,Fort Myers,3/15/19,26.5888949,-81.7545369
Sunrise Towers Apartments Pool,2825 Central Avenue,Fort Myers,1/11/19,26.62592258,-81.86406782
Summerwind At Gateway Pool,12030 Summergate Circle,Fort Myers,1/15/19,26.564002,-81.7578006
Lucaya Pool,14506 Abaco Lakes Drive,Fort Myers,1/4/19,26.53063965,-81.92452798
Santa Luz Pool,12110 Santaluz Drive,Fort Myers,1/7/19,26.5673168,-81.7572721
Bent Palms Townhomes Pool,16535 Bent Palms Cove,Fort Myers,1/4/19,26.49270755,-81.92552833
Iona Gardens Pool,15720 Fern Drive,Fort Myers,1/8/19,26.5126407,-81.95564
Flamingo Village Assoc Pool,7140 Blanquilla Street,Fort Myers,1/8/19,26.5207017,-81.9479451
Gulf Hideaway Pool,5450 Park Road,Fort Myers,1/23/19,26.4783636,-81.8455507
Coves of Estero Bay Swimming Pool,6409 Estero Bay Drive,Fort Myers,1/23/19,26.49270755,-81.92552833
Tuscany Gardens Pool,6470 Aragon Way,Fort Myers,1/4/19,26.5513253,-81.8488684
Waterside III & IV Spa,4175 Bay Beach Lane,Fort Myers Beach,2/14/19,26.4085761,-81.8874394
Waterside I & II Spa,4195 Bay Beach Lane,Fort Myers Beach,2/14/19,26.40907591,-81.88862246
Hidden Harbor Lodge Pool,17320 Hidden Estates Circle,Fort Myers,2/13/19,26.4882784,-81.8538269
Fairway Woods of Cross Creek Pool,12541 Cold Stream Drive,Fort Myers,4/23/19,26.56112033,-81.8238159
Snook Bight Marina Pool,4765 Estero Boulevard,Fort Myers Beach,4/17/19,26.43704542,-81.92163634